satname,norad_id,inclination_deg,eccentricity,mean_motion_rev_per_day,perigee_km,apogee_km,l1,l2
STARLINK-1465,45731,53.0519,0.0001713,15.06390129,546.0554939064186,548.4281286871692,1 45731U 20038B   25294.78466993  .00005986  00000+0  42053-3 0  9991,2 45731  53.0519 140.1868 0001713  81.7136 278.4047 15.06390129295252
STARLINK-1471,45735,53.0506,0.0002356,15.40375148,443.3937421159826,446.60880487045233,1 45735U 20038F   25294.82307769  .00028323  00000+0  69785-3 0  9996,2 45735  53.0506  82.6366 0002356 136.5723 223.5467 15.40375148296070
STARLINK-1474,45738,53.0395,0.0003065,15.65165701,370.69309719656667,374.83139843547724,1 45738U 20038J   25294.57057483  .00090179  00000+0  89090-3 0  9995,2 45738  53.0395  42.9939 0003065 269.7147  90.3516 15.65165701296604
STARLINK-1475,45739,53.0519,0.0005036,15.72555897,348.20607372436916,354.9842599628146,1 45739U 20038K   25294.91667823  .00129450  00000+0  93733-3 0  9993,2 45739  53.0519   8.3948 0005036 317.0266 259.9977 15.72555897  5797
STARLINK-1480,45741,53.0516,0.0001402,15.06389582,546.2725494474389,548.2144261362155,1 45741U 20038M   25294.83258212 -.00000625  00000+0 -23077-4 0  9994,2 45741  53.0516 139.9732 0001402  87.8862 272.2287 15.06389582295275
STARLINK-1500,45744,53.0361,0.0004352,15.26987323,481.8375973995244,487.81111896568746,1 45744U 20038Q   25294.81348736  .00022981  00000+0  86624-3 0  9999,2 45744  53.0361 120.2855 0004352 155.1042 205.0166 15.26987323295540
STARLINK-1504,45746,53.0282,0.0004663,15.39157542,445.415951586283,451.78256582115137,1 45746U 20038S   25294.70478510  .00073209  00000+0  18499-2 0  9996,2 45746  53.0282  86.2721 0004663 163.2605 196.8552 15.39157542296001
STARLINK-1506,45747,53.0519,0.0003411,15.21028389,500.390294070291,505.0844265588976,1 45747U 20038T   25294.79671072  .00017980  00000+0  81248-3 0  9991,2 45747  53.0519 122.4320 0003411 174.4570 185.6464 15.21028389295518
STARLINK-1464,45751,53.0538,0.000143,15.06398987,546.2243373513611,548.2049879268761,1 45751U 20038X   25294.83442169 -.00000368  00000+0 -58083-5 0  9991,2 45751  53.0538 119.9635 0001430  88.1197 271.9956 15.06398987295555
STARLINK-1477,45754,53.0514,0.0001394,15.06393763,546.265277257251,548.1960697646255,1 45754U 20038AA  25294.78281164 -.00002052  00000+0 -11895-3 0  9994,2 45754  53.0514 120.1935 0001394  87.5782 272.5366 15.06393763295549
STARLINK-1478,45755,53.0531,0.0001345,15.0640517,546.2642554283566,548.1271699280669,1 45755U 20038AB  25294.80124206  .00000460  00000+0  49783-4 0  9998,2 45755  53.0531 120.1124 0001345  95.0204 265.0938 15.06405170295535
STARLINK-1484,45756,53.0179,0.0001133,15.58702681,390.6437151757191,392.1776946856562,1 45756U 20038AC  25294.91667823  .00160652  00000+0  20158-2 0  9991,2 45756  53.0179  28.9088 0001133 254.6849 161.7408 15.58702681  5831
STARLINK-1493,45759,53.0514,0.0001374,15.06398091,546.2658650587473,548.1689524502735,1 45759U 20038AF  25294.79019696  .00006841  00000+0  47776-3 0  9994,2 45759  53.0514 120.1614 0001374  82.9206 277.1939 15.06398091295531
STARLINK-1494,45760,53.0535,6.63e-05,15.50500798,414.81246771190854,415.71327253468644,1 45760U 20038AG  25294.80568970  .00040647  00000+0  70482-3 0  9994,2 45760  53.0535 108.2527 0000663  31.1669 328.9378 15.50500798295715
STARLINK-1502,45764,53.0519,0.000122,15.06402098,546.3602361383064,548.050019617508,1 45764U 20038AL  25294.82338022  .00012099  00000+0  82970-3 0  9998,2 45764  53.0519 120.0119 0001220  96.5364 263.5764 15.06402098295557
STARLINK-1470,45772,53.0492,0.0004284,15.17087718,511.6948274070737,517.6005653349257,1 45772U 20038AU  25294.81538816  .00045751  00000+0  22825-2 0  9992,2 45772  53.0492  93.2635 0004284 181.5035 178.5947 15.17087718295922
STARLINK-1482,45773,53.052,0.0001425,15.0639836,546.2297214208702,548.2034471923971,1 45773U 20038AV  25294.78834536  .00003521  00000+0  25517-3 0  9998,2 45773  53.0520 100.1699 0001425  83.0865 277.0286 15.06398360295820
STARLINK-1485,45774,53.0426,0.0006146,16.00234635,269.6801354049567,277.85665751828674,1 45774U 20038AW  25294.75090230  .00586548  16380-3  11062-2 0  9997,2 45774  53.0426  34.7107 0006146 338.3735  21.7034 16.00234635296734
STARLINK-1496,45780,53.0523,0.0001359,15.06403069,546.2609983205184,548.1433055020088,1 45780U 20038BC  25294.82153828  .00015195  00000+0  10367-2 0  9995,2 45780  53.0523 100.0202 0001359  92.9092 267.2052 15.06403069295811
STARLINK-1497,45781,53.041,0.0006163,15.51232678,408.94047142663294,417.31138211016696,1 45781U 20038BD  25294.91667823  .00140240  00000+0  23197-2 0  9996,2 45781  53.0410  48.1162 0006163 216.9232 194.9642 15.51232678  5856
STARLINK-1510,45784,53.0341,0.0001879,15.66210607,368.49138448324084,371.02724391811716,1 45784U 20038BG  25294.91667823  .00147653  00000+0  13861-2 0  9991,2 45784  53.0341  25.3872 0001879 120.0437   1.9827 15.66210607  5832
STARLINK-1513,45786,53.0529,0.0001701,15.06396458,546.0444100431414,548.4004173156745,1 45786U 20038BJ  25294.85100068 -.00001011  00000+0 -48956-4 0  9993,2 45786  53.0529  99.8896 0001701 100.6065 259.5116 15.06396458295835
STARLINK-1522,46027,53.0543,0.0001384,15.06391163,546.2801702140387,548.1971141918002,1 46027U 20055A   25294.69896582  .00002932  00000+0  21568-3 0  9996,2 46027  53.0543  30.5708 0001384  90.4911 269.6237 15.06391163287933
STARLINK-1523,46028,53.056,0.0001396,15.06407884,546.2206194336632,548.1541700046691,1 46028U 20055B   25294.64736324  .00001196  00000+0  99152-4 0  9995,2 46028  53.0560  30.8045 0001396 102.7383 257.3762 15.06407884287949
STARLINK-1526,46029,53.0581,0.0001451,15.06397765,546.2135388301604,548.2232769695329,1 46029U 20055C   25294.57364475  .00002962  00000+0  21767-3 0  9990,2 46029  53.0581  31.1320 0001451  92.8266 267.2889 15.06397765287928
STARLINK-1555,46032,53.0561,0.0001434,15.06422964,546.148092589131,548.1342623704322,1 46032U 20055F   25294.69158647  .00000732  00000+0  67995-4 0  9996,2 46032  53.0561  30.6041 0001434 100.0153 260.0998 15.06422964287946
STARLINK-1556,46033,53.0549,0.0001981,15.06393095,545.8608051079145,548.6046365913144,1 46033U 20055G   25294.67317304  .00010882  00000+0  74846-3 0  9991,2 46033  53.0549  30.6863 0001981 115.3916 244.7278 15.06393095287917
STARLINK-1557,46034,53.0561,0.000134,15.06389727,546.3150424568121,548.1710443084385,1 46034U 20055H   25294.54415340  .00000127  00000+0  27413-4 0  9997,2 46034  53.0561  31.2647 0001340  89.4543 270.6599 15.06389727287893
